#cP2023 10 14  0  0  0.00000000      96 ORBIT IGS20 HLM  IGS
## 2283 518400.00000000   900.00000000 60231 0.0000000000000
+   32   G01G02G03G04G05G06G07G08G09G10G11G12G13G14G15G16G17
+        G18G19G20G21G22G23G24G25G26G27G28G29G30G31G32  0  0
+          0  0  0  0  0  0  0  0  0  0  0  0  0  0  0  0  0
+          0  0  0  0  0  0  0  0  0  0  0  0  0  0  0  0  0
+          0  0  0  0  0  0  0  0  0  0  0  0  0  0  0  0  0
++         4  2  2  2  2  3  2  2  2  2  3  2  2  2  2  2  2
++         3  2  2  2  2  2  2  2  2  2  3  2  2  2  2  0  0
++         0  0  0  0  0  0  0  0  0  0  0  0  0  0  0  0  0
++         0  0  0  0  0  0  0  0  0  0  0  0  0  0  0  0  0
++         0  0  0  0  0  0  0  0  0  0  0  0  0  0  0  0  0
%c G  cc GPS ccc cccc cccc cccc cccc ccccc ccccc ccccc ccccc
%c cc cc ccc ccc cccc cccc cccc cccc ccccc ccccc ccccc ccccc
%f  1.2500000  1.025000000  0.00000000000  0.000000000000000
%f  0.0000000  0.000000000  0.00000000000  0.000000000000000
%i    0    0    0    0      0      0      0      0         0
%i    0    0    0    0      0      0      0      0         0
/* RAPID ORBIT COMBINATION FROM WEIGHTED AVERAGE OF:        
/* cod emr esa gfz grg jgx jpl ngs sio usn whu              
/* REFERENCED TO IGS TIME (IGST) AND TO WEIGHTED MEAN POLE: 
/* PCV:IGS20      OL/AL:FES2014b NONE     Y  ORB:CMB CLK:CMB
*  2023 10 14  9  0  0.00000000
PG01  21908.728476  15271.978369  -1805.383753    163.753409 10 10 10 109       
PG02  19882.532473  15782.991565  -7619.351259   -542.217044  8  7  4 100       
PG03  12127.016204  14447.131918  18595.836345    -79.766856  6  5  4  70       
PG04  18771.346510   4733.531914  18245.963448    184.006550  5  7  7  49       
PG05  -6084.232833 -24620.643055  -7909.100336   -146.448391  9  5  6  67       
PG06   8332.140308 -12013.653320  22243.265914    530.867464  8  7  9  73       
PG07  22970.301852   3201.675036 -12890.109501     40.827432  7  5  8  96       
PG08  10479.798342  11532.818204 -21616.565525   -147.036447  6  5  4 105       
PG09  23598.972046  -4457.613589  11317.010149    -32.845921  5  4  3  80       
PG10 -10948.923626  17977.619503 -15808.698930    -57.284868  5  6  6 111       
PG11  -4525.137666 -18513.993409  18537.483115   -414.396862  8  9  9  93       
PG12 -10185.837197 -17549.146984  16904.599163   -435.699237  6  6  5 103       
PG13    -31.597361 -15772.338814 -21537.560828    583.824799  6  7  5  25       
PG14  13390.469876 -14582.271217 -17601.540764    213.557531  4  6  5  79       
PG15 -12773.401967 -10246.986800 -21425.768130     86.953637  5  6     77       
PG16   -326.176542  26102.936893  -3606.369247   -439.347121  7  6  6  70       
PG17  22517.056186 -13719.407511   4118.645049    723.825464  3  3  3  83       
PG18 -21765.867568  -1497.502980 -15266.025898   -448.316972  6  4  7  78       
PG19  17639.767853 -15837.556483  11421.834460    384.752691  4  4  3  84       
PG20   -558.392542 -26237.155194   4744.826736    406.896478  7  5  5  96       
PG21  17872.993160  16956.572114 -10518.811913    146.797799 10  9  4  81       
PG22  10812.098865 -20925.614628 -12088.603840    103.203606  7  4  4 108       
PG23 -14576.214207   5035.552984 -21593.301494     82.461003  5  5  4 107       
PG24 -20624.368744 -15770.134342  -6958.219111   -345.660915  4  8  5  97       
PG25 -15099.674003  -3692.233938  21240.981151    472.635969  7  6  2  84       
PG26  -4342.774371  24848.630185   7586.624965    223.271255  7  5  6  98       
PG27  -3136.919966  17480.638619 -19870.479519    -54.880886  6  5  4 107       
PG28 -10183.375377  11565.082236  21610.829145    -25.308551  6  8  5  99       
PG29 -23928.586854   2397.981334  11346.577459   -610.042113  6  4  4  95       
PG30  17090.228889  -6210.324539 -19323.339395   -478.738146  7  5  5  88       
PG31  -1122.608990  16491.135746  20505.814044   -224.632016  5  7  4 102       
PG32 -19401.174180  16595.591582   7100.519077   -572.418250  3  4  5  99       
*  2023 10 14  9 15  0.00000000
PG01  21555.617662  15226.360826  -4668.737287    163.752949 11 11 11 110       
PG02  18812.856672  15525.990903 -10226.289666   -542.212906  7  7  4  88       
PG03  12033.346582  16497.473405  16895.446063    -79.746194  6  4  4  72       
PG04  16929.788911   5873.365733  19651.182618    184.016300  6  6  7  85       
PG05  -5898.732200 -25360.837813  -5165.217483   -146.450202  9  5  6  62       
PG06  10497.972995 -10750.422525  21978.610131    530.859911  8  5  9  70       
PG07  24076.167511   4076.340195 -10536.570710     40.818557  8  6  7  82       
PG08   8395.977792  12849.358592 -21747.966859   -147.039021  6  5  3 100       
PG09  22493.129303  -3510.758440  13640.292230    -32.836227  5  3  3  86       
PG10 -11124.731599  16023.717393 -17684.675023    -57.285864  5  5  6 108       
PG11  -2610.022281 -17440.566349  19893.867725   -414.412559  7  8  8 102       
PG12  -9908.989968 -19402.448063  14970.491083   -435.703460  6  5  5 102       
PG13   2190.251270 -16626.132399 -20743.745687    583.828722  6  7  5  48       
PG14  13516.772722 -12467.352552 -19081.632059    213.567531  4  6  6  91       
PG15 -10940.400093 -11751.277282 -21651.253015     86.956806  5  6     70       
PG16   -621.389786  26298.706658   -731.830414   -439.341443  6  5  6  77       
PG17  22843.394045 -13650.027313   1269.108378    723.825141  2  2  3  80       
PG18 -23079.672385  -2447.010338 -13072.014945   -448.327543  7  5  8  87       
PG19  18821.729566 -16127.290413   8859.195033    384.757484  4  4  4  84       
PG20   -178.108903 -25605.539346   7454.292067    406.894481  7  5  4  96       
PG21  16545.939597  16538.231584 -12881.476135    146.797116  9  8  4  69       
PG22  10879.222396 -19345.252612 -14338.824753    103.197404  7  4  4 103       
PG23 -14710.927731   2548.355073 -21951.514103     82.466289  5  5  4  95       
PG24 -19703.522682 -15650.915589  -9523.893117   -345.669838  5  7  5  98       
PG25 -15116.104254  -6157.680408  20682.485849    472.637618  7  6  3  74       
PG26  -4761.922599  23835.952821  10147.565717    223.269224  7  5  6  95       
PG27  -5054.771977  18476.868804 -18471.593493    -54.886069  6  5  5 101       
PG28 -12334.301245  10397.600406  21077.546677    -25.314716  6  7  5 103       
PG29 -22719.075512   1608.233588  13707.238570   -610.042250  7  4  4  86       
PG30  18891.377234  -5015.203093 -17978.132857   -478.734805  7  5  5  81       
PG31  -3262.574744  15324.024848  21202.025241   -224.632534  5  6  4 106       
PG32 -20081.985447  16702.039860   4335.057522   -572.423075  4  4  5 104       
*  2023 10 14  9 30  0.00000000
PG01  20919.462212  15055.880753  -7453.902249    163.752539 12 11 12 114       
PG02  17459.157495  15224.124562 -12654.960981   -542.208345  7  6  4  92       
PG03  12038.533210  18338.542393  14902.425618    -79.725490  6  4  4  74       
PG04  15031.548891   7183.459961  20719.563790    184.026001  6  6  6  78       
PG05  -5714.094739 -25796.683994  -2332.300847   -146.451543  8  5  6  86       
PG06  12685.701824  -9635.691139  21338.484072    530.852329  9  5  9  56       
PG07  24975.249736   4766.853063  -8002.352985     40.808968  9  6  7  62       
PG08   6384.544687  14270.413105 -21507.629051   -147.040504  6  5  3  98       
PG09  21233.233379  -2362.889798  15728.261244    -32.826524  6  3  3  84       
PG10 -11420.560582  13886.373262 -19248.302014    -57.287573  5  5  5 105       
PG11   -522.726719 -16405.581921  20908.876102   -414.428139  6  7  8  88       
PG12  -9730.356372 -21030.068324  12775.039114   -435.707060  5  5  5 100       
PG13   4267.333264 -17551.209754 -19597.553948    583.832904  6  7  5  58       
PG14  13753.882090 -10213.680163 -20231.137450    213.577529  5  6  6  79       
PG15  -9177.996797 -13348.711076 -21520.269295     86.960223  5  6  2  67       
PG16   -903.199434  26179.642221   2155.623262   -439.335914  6  4  6  77       
PG17  22896.841819 -13431.258420  -1602.031635    723.825407  2  2  3  81       
PG18 -24210.710054  -3204.569130 -10654.965854   -448.338162  8  6  8  90       
PG19  19718.597452 -16337.516873   6139.900828    384.762291  4  4  4  81       
PG20    305.137872 -24704.966701  10037.020942    406.892927  7  4  3  96       
PG21  14953.540581  16102.561072 -15025.990536    146.795959  9  7  4  67       
PG22  11026.334714 -17523.713273 -16338.404581    103.191057  8  5  4  94       
PG23 -14982.488835     54.841807 -21931.482314     82.471530  6  6  4  79       
PG24 -18521.552717 -15477.767902 -11931.876930   -345.678808  4  7  5  93       
PG25 -15248.827524  -8531.177724  19759.429145    472.639290  7  6  4  57       
PG26  -5267.484751  22565.501054  12529.458657    223.267167  7  5  5  93       
PG27  -6776.641600  19475.270182 -16756.678434    -54.891336  6  5  5  97       
PG28 -14469.181283   9377.040853  20180.865708    -25.320916  5  7  6 108       
PG29 -21333.207978    627.189682  15832.588263   -610.042361  8  4  5  92       
PG30  20594.419747  -3985.500759 -16323.416235   -478.731440  7  5  5  89       
PG31  -5507.012778  14241.024968  21525.190700   -224.632558  5  6  3 102       
PG32 -20495.503907  16661.736595   1494.300290   -572.427851  3  4  5 100       
EOF
